{"type": "FeatureCollection", "features": [ {"type": "Feature", "properties": {"norad_id": 66797, "name": "STARLINK-36099", "group": "last-30-days", "lat": -16.42541734681106, "lon": -160.25192494994016, "alt_km": 354.59432661101346, "timestamp": "2025-12-18T07:01:53.341105+00:00", "meta": {"OBJECT_NAME": "STARLINK-36099", "OBJECT_ID": "2025-278G", "EPOCH": "2025-12-17T22:00:01.999584", "MEAN_MOTION": 15.73399759, "ECCENTRICITY": 0.00018105, "INCLINATION": 42.999, "RA_OF_ASC_NODE": 220.467, "ARG_OF_PERICENTER": 278.2544, "MEAN_ANOMALY": 84.406, "EPHEMERIS_TYPE": 0, "CLASSIFICATION_TYPE": "U", "NORAD_CAT_ID": 66797, "ELEMENT_SET_NO": 999, "REV_AT_EPOCH": 384, "BSTAR": -0.015382148, "MEAN_MOTION_DOT": -0.01910884, "MEAN_MOTION_DDOT": 0}, "tle": {"line1": "1 66797U 25278G   25351.91668981 -.01910884  00000+0 -15382-1 0  9995", "line2": "2 66797  42.9990 220.4670 0001810 278.2544  84.4060 15.73399759  3848"}}, "geometry": {"type": "Point", "coordinates": [-160.25192494994016, -16.42541734681106]}}, {"type": "Feature", "properties": {"norad_id": 66798, "name": "STARLINK-36041", "group": "last-30-days", "lat": -15.176546855106933, "lon": -158.73796045998904, "alt_km": 354.8608432016126, "timestamp": "2025-12-18T07:01:53.341117+00:00", "meta": {"OBJECT_NAME": "STARLINK-36041", "OBJECT_ID": "2025-278H", "EPOCH": "2025-12-17T22:00:01.999584", "MEAN_MOTION": 15.73399676, "ECCENTRICITY": 0.00016184, "INCLINATION": 42.9989, "RA_OF_ASC_NODE": 220.4615, "ARG_OF_PERICENTER": 267.1006, "MEAN_ANOMALY": 97.4852, "EPHEMERIS_TYPE": 0, "CLASSIFICATION_TYPE": "U", "NORAD_CAT_ID": 66798, "ELEMENT_SET_NO": 999, "REV_AT_EPOCH": 363, "BSTAR": -0.015416678, "MEAN_MOTION_DOT": -0.01914401, "MEAN_MOTION_DDOT": 0}, "tle": {"line1": "1 66798U 25278H   25351.91668981 -.01914401  00000+0 -15417-1 0  9994", "line2": "2 66798  42.9989 220.4615 0001618 267.1006  97.4852 15.73399676  3630"}}, "geometry": {"type": "Point", "coordinates": [-158.73796045998904, -15.176546855106933]}}, {"type": "Feature", "properties": {"norad_id": 66799, "name": "STARLINK-36044", "group": "last-30-days", "lat": -13.922598470551266, "lon": -157.24645368774546, "alt_km": 354.62856437433584, "timestamp": "2025-12-18T07:01:53.341127+00:00", "meta": {"OBJECT_NAME": "STARLINK-36044", "OBJECT_ID": "2025-278J", "EPOCH": "2025-12-17T22:00:01.999584", "MEAN_MOTION": 15.73402588, "ECCENTRICITY": 0.00017448, "INCLINATION": 42.9989, "RA_OF_ASC_NODE": 220.4573, "ARG_OF_PERICENTER": 272.1123, "MEAN_ANOMALY": 94.3897, "EPHEMERIS_TYPE": 0, "CLASSIFICATION_TYPE": "U", "NORAD_CAT_ID": 66799, "ELEMENT_SET_NO": 999, "REV_AT_EPOCH": 379, "BSTAR": -0.015483399, "MEAN_MOTION_DOT": -0.01961626, "MEAN_MOTION_DDOT": 0}, "tle": {"line1": "1 66799U 25278J   25351.91668981 -.01961626  00000+0 -15483-1 0  9999", "line2": "2 66799  42.9989 220.4573 0001744 272.1123  94.3897 15.73402588  3799"}}, "geometry": {"type": "Point", "coordinates": [-157.24645368774546, -13.922598470551266]}}, {"type": "Feature", "properties": {"norad_id": 66800, "name": "STARLINK-35996", "group": "last-30-days", "lat": -11.388987352495395, "lon": -154.31230628515732, "alt_km": 354.39477454019743, "timestamp": "2025-12-18T07:01:53.341137+00:00", "meta": {"OBJECT_NAME": "STARLINK-35996", "OBJECT_ID": "2025-278K", "EPOCH": "2025-12-17T22:00:01.999584", "MEAN_MOTION": 15.7340157, "ECCENTRICITY": 0.00017411, "INCLINATION": 42.999, "RA_OF_ASC_NODE": 220.4475, "ARG_OF_PERICENTER": 273.7153, "MEAN_ANOMALY": 96.6139, "EPHEMERIS_TYPE": 0, "CLASSIFICATION_TYPE": "U", "NORAD_CAT_ID": 66800, "ELEMENT_SET_NO": 999, "REV_AT_EPOCH": 358, "BSTAR": -0.015407368, "MEAN_MOTION_DOT": -0.01913654, "MEAN_MOTION_DDOT": 0}, "tle": {"line1": "1 66800U 25278K   25351.91668981 -.01913654  00000+0 -15407-1 0  9996", "line2": "2 66800  42.9990 220.4475 0001741 273.7153  96.6139 15.73401570  3583"}}, "geometry": {"type": "Point", "coordinates": [-154.31230628515732, -11.388987352495395]}}, {"type": "Feature", "properties": {"norad_id": 66801, "name": "STARLINK-36080", "group": "last-30-days", "lat": -4.93470806255638, "lon": -147.16919575700507, "alt_km": 354.02812134779833, "timestamp": "2025-12-18T07:01:53.341147+00:00", "meta": {"OBJECT_NAME": "STARLINK-36080", "OBJECT_ID": "2025-278L", "EPOCH": "2025-12-17T22:00:01.999584", "MEAN_MOTION": 15.7340931, "ECCENTRICITY": 0.0001794, "INCLINATION": 42.999, "RA_OF_ASC_NODE": 220.4226, "ARG_OF_PERICENTER": 268.7123, "MEAN_ANOMALY": 111.202, "EPHEMERIS_TYPE": 0, "CLASSIFICATION_TYPE": "U", "NORAD_CAT_ID": 66801, "ELEMENT_SET_NO": 999, "REV_AT_EPOCH": 379, "BSTAR": -0.015504273, "MEAN_MOTION_DOT": -0.01964515, "MEAN_MOTION_DDOT": 0}, "tle": {"line1": "1 66801U 25278L   25351.91668981 -.01964515  00000+0 -15504-1 0  9997", "line2": "2 66801  42.9990 220.4226 0001794 268.7123 111.2020 15.73409310  3793"}}, "geometry": {"type": "Point", "coordinates": [-147.16919575700507, -4.93470806255638]}}, {"type": "Feature", "properties": {"norad_id": 66802, "name": "STARLINK-35604", "group": "last-30-days", "lat": -12.659701604558107, "lon": -155.77249700984544, "alt_km": 354.60734044230503, "timestamp": "2025-12-18T07:01:53.341160+00:00", "meta": {"OBJECT_NAME": "STARLINK-35604", "OBJECT_ID": "2025-278M", "EPOCH": "2025-12-17T22:00:01.999584", "MEAN_MOTION": 15.73404666, "ECCENTRICITY": 0.00014332, "INCLINATION": 42.9988, "RA_OF_ASC_NODE": 220.4519, "ARG_OF_PERICENTER": 272.6135, "MEAN_ANOMALY": 95.8031, "EPHEMERIS_TYPE": 0, "CLASSIFICATION_TYPE": "U", "NORAD_CAT_ID": 66802, "ELEMENT_SET_NO": 999, "REV_AT_EPOCH": 379, "BSTAR": -0.015459345, "MEAN_MOTION_DOT": -0.01958828, "MEAN_MOTION_DDOT": 0}, "tle": {"line1": "1 66802U 25278M   25351.91668981 -.01958828  00000+0 -15459-1 0  9997", "line2": "2 66802  42.9988 220.4519 0001433 272.6135  95.8031 15.73404666  3791"}}, "geometry": {"type": "Point", "coordinates": [-155.77249700984544, -12.659701604558107]}}, {"type": "Feature", "properties": {"norad_id": 66803, "name": "STARLINK-35565", "group": "last-30-days", "lat": -10.107207749449492, "lon": -152.86207781100967, "alt_km": 354.556047021606, "timestamp": "2025-12-18T07:01:53.341173+00:00", "meta": {"OBJECT_NAME": "STARLINK-35565", "OBJECT_ID": "2025-278N", "EPOCH": "2025-12-17T22:00:01.999584", "MEAN_MOTION": 15.73397357, "ECCENTRICITY": 0.00015143, "INCLINATION": 42.9988, "RA_OF_ASC_NODE": 220.442, "ARG_OF_PERICENTER": 266.0363, "MEAN_ANOMALY": 106.2206, "EPHEMERIS_TYPE": 0, "CLASSIFICATION_TYPE": "U", "NORAD_CAT_ID": 66803, "ELEMENT_SET_NO": 999, "REV_AT_EPOCH": 387, "BSTAR": -0.015404702, "MEAN_MOTION_DOT": -0.01912855, "MEAN_MOTION_DDOT": 0}, "tle": {"line1": "1 66803U 25278N   25351.91668981 -.01912855  00000+0 -15405-1 0  9999", "line2": "2 66803  42.9988 220.4420 0001514 266.0363 106.2206 15.73397357  3871"}}, "geometry": {"type": "Point", "coordinates": [-152.86207781100967, -10.107207749449492]}}, {"type": "Feature", "properties": {"norad_id": 66804, "name": "STARLINK-36038", "group": "last-30-days", "lat": -8.82271858036861, "lon": -151.42560408924265, "alt_km": 354.27319048029585, "timestamp": "2025-12-18T07:01:53.341183+00:00", "meta": {"OBJECT_NAME": "STARLINK-36038", "OBJECT_ID": "2025-278P", "EPOCH": "2025-12-17T22:00:01.999584", "MEAN_MOTION": 15.73404736, "ECCENTRICITY": 0.0001723, "INCLINATION": 42.9991, "RA_OF_ASC_NODE": 220.4382, "ARG_OF_PERICENTER": 271.7228, "MEAN_ANOMALY": 102.4435, "EPHEMERIS_TYPE": 0, "CLASSIFICATION_TYPE": "U", "NORAD_CAT_ID": 66804, "ELEMENT_SET_NO": 999, "REV_AT_EPOCH": 379, "BSTAR": -0.015480314, "MEAN_MOTION_DOT": -0.01961424, "MEAN_MOTION_DDOT": 0}, "tle": {"line1": "1 66804U 25278P   25351.91668981 -.01961424  00000+0 -15480-1 0  9999", "line2": "2 66804  42.9991 220.4382 0001723 271.7228 102.4435 15.73404736  3791"}}, "geometry": {"type": "Point", "coordinates": [-151.42560408924265, -8.82271858036861]}}, {"type": "Feature", "properties": {"norad_id": 66805, "name": "STARLINK-36049", "group": "last-30-days", "lat": -6.234816754777622, "lon": -148.58060226495257, "alt_km": 354.1194489903846, "timestamp": "2025-12-18T07:01:53.341195+00:00", "meta": {"OBJECT_NAME": "STARLINK-36049", "OBJECT_ID": "2025-278Q", "EPOCH": "2025-12-17T22:00:01.999584", "MEAN_MOTION": 15.73400689, "ECCENTRICITY": 0.00015598, "INCLINATION": 42.999, "RA_OF_ASC_NODE": 220.4277, "ARG_OF_PERICENTER": 270.7859, "MEAN_ANOMALY": 107.2208, "EPHEMERIS_TYPE": 0, "CLASSIFICATION_TYPE": "U", "NORAD_CAT_ID": 66805, "ELEMENT_SET_NO": 999, "REV_AT_EPOCH": 379, "BSTAR": -0.015447139, "MEAN_MOTION_DOT": -0.01957263, "MEAN_MOTION_DDOT": 0}, "tle": {"line1": "1 66805U 25278Q   25351.91668981 -.01957263  00000+0 -15447-1 0  9999", "line2": "2 66805  42.9990 220.4277 0001559 270.7859 107.2208 15.73400689  3794"}}, "geometry": {"type": "Point", "coordinates": [-148.58060226495257, -6.234816754777622]}}, {"type": "Feature", "properties": {"norad_id": 66806, "name": "STARLINK-36069", "group": "last-30-days", "lat": -7.530738279613386, "lon": -149.9987359992859, "alt_km": 354.2018944342126, "timestamp": "2025-12-18T07:01:53.341205+00:00", "meta": {"OBJECT_NAME": "STARLINK-36069", "OBJECT_ID": "2025-278R", "EPOCH": "2025-12-17T22:00:01.999584", "MEAN_MOTION": 15.73403862, "ECCENTRICITY": 0.00015582, "INCLINATION": 42.999, "RA_OF_ASC_NODE": 220.4327, "ARG_OF_PERICENTER": 271.7341, "MEAN_ANOMALY": 104.3527, "EPHEMERIS_TYPE": 0, "CLASSIFICATION_TYPE": "U", "NORAD_CAT_ID": 66806, "ELEMENT_SET_NO": 999, "REV_AT_EPOCH": 358, "BSTAR": -0.01546805, "MEAN_MOTION_DOT": -0.01959845, "MEAN_MOTION_DDOT": 0}, "tle": {"line1": "1 66806U 25278R   25351.91668981 -.01959845  00000+0 -15468-1 0  9991", "line2": "2 66806  42.9990 220.4327 0001558 271.7341 104.3527 15.73403862  3582"}}, "geometry": {"type": "Point", "coordinates": [-149.9987359992859, -7.530738279613386]}}]}